[{"OBJECT_NAME":"QIANFAN-86","OBJECT_ID":"2025-046P","EPOCH":"2026-03-06T05:57:03.228192","MEAN_MOTION":13.51001758,"ECCENTRICITY":0.00092732,"INCLINATION":88.9761,"RA_OF_ASC_NODE":311.1606,"ARG_OF_PERICENTER":250.0219,"MEAN_ANOMALY":109.9934,"EPHEMERIS_TYPE":0,"CLASSIFICATION_TYPE":"U","NORAD_CAT_ID":63172,"ELEMENT_SET_NO":999,"REV_AT_EPOCH":5882,"BSTAR":0.0002791236,"MEAN_MOTION_DOT":1.92e-6,"MEAN_MOTION_DDOT":0},{"OBJECT_NAME":"QIANFAN-87","OBJECT_ID":"2025-046Q","EPOCH":"2026-03-06T05:15:41.415840","MEAN_MOTION":13.51010076,"ECCENTRICITY":0.00099721,"INCLINATION":88.9757,"RA_OF_ASC_NODE":311.2718,"ARG_OF_PERICENTER":244.4032,"MEAN_ANOMALY":115.6089,"EPHEMERIS_TYPE":0,"CLASSIFICATION_TYPE":"U","NORAD_CAT_ID":63173,"ELEMENT_SET_NO":999,"REV_AT_EPOCH":5875,"BSTAR":0.00028850123,"MEAN_MOTION_DOT":1.98e-6,"MEAN_MOTION_DDOT":0},{"OBJECT_NAME":"QIANFAN-88","OBJECT_ID":"2025-046R","EPOCH":"2026-03-06T05:39:12.207744","MEAN_MOTION":13.50998444,"ECCENTRICITY":0.00103352,"INCLINATION":88.9759,"RA_OF_ASC_NODE":311.2269,"ARG_OF_PERICENTER":254.107,"MEAN_ANOMALY":105.8942,"EPHEMERIS_TYPE":0,"CLASSIFICATION_TYPE":"U","NORAD_CAT_ID":63174,"ELEMENT_SET_NO":999,"REV_AT_EPOCH":5878,"BSTAR":0.00027519134,"MEAN_MOTION_DOT":1.9e-6,"MEAN_MOTION_DDOT":0},{"OBJECT_NAME":"QIANFAN-89","OBJECT_ID":"2025-046S","EPOCH":"2026-03-06T06:32:44.952864","MEAN_MOTION":13.51008981,"ECCENTRICITY":0.00148476,"INCLINATION":88.976,"RA_OF_ASC_NODE":311.4121,"ARG_OF_PERICENTER":243.2421,"MEAN_ANOMALY":116.7211,"EPHEMERIS_TYPE":0,"CLASSIFICATION_TYPE":"U","NORAD_CAT_ID":63175,"ELEMENT_SET_NO":999,"REV_AT_EPOCH":5868,"BSTAR":0.00026194209,"MEAN_MOTION_DOT":1.81e-6,"MEAN_MOTION_DDOT":0},{"OBJECT_NAME":"QIANFAN-90","OBJECT_ID":"2025-046T","EPOCH":"2026-03-06T05:27:37.302048","MEAN_MOTION":13.51008878,"ECCENTRICITY":0.00118087,"INCLINATION":88.976,"RA_OF_ASC_NODE":311.3893,"ARG_OF_PERICENTER":241.2869,"MEAN_ANOMALY":118.7096,"EPHEMERIS_TYPE":0,"CLASSIFICATION_TYPE":"U","NORAD_CAT_ID":63176,"ELEMENT_SET_NO":999,"REV_AT_EPOCH":5869,"BSTAR":0.00030796465,"MEAN_MOTION_DOT":2.11e-6,"MEAN_MOTION_DDOT":0},{"OBJECT_NAME":"QIANFAN-91","OBJECT_ID":"2025-233A","EPOCH":"2026-03-06T06:14:28.799520","MEAN_MOTION":13.51004533,"ECCENTRICITY":0.00019518,"INCLINATION":88.9931,"RA_OF_ASC_NODE":53.5958,"ARG_OF_PERICENTER":92.296,"MEAN_ANOMALY":267.8415,"EPHEMERIS_TYPE":0,"CLASSIFICATION_TYPE":"U","NORAD_CAT_ID":66033,"ELEMENT_SET_NO":999,"REV_AT_EPOCH":1928,"BSTAR":2.6452505e-5,"MEAN_MOTION_DOT":2.9e-7,"MEAN_MOTION_DDOT":0},{"OBJECT_NAME":"QIANFAN-92","OBJECT_ID":"2025-233B","EPOCH":"2026-03-06T06:26:14.337600","MEAN_MOTION":13.51005872,"ECCENTRICITY":0.00019519,"INCLINATION":88.9915,"RA_OF_ASC_NODE":53.5836,"ARG_OF_PERICENTER":86.0715,"MEAN_ANOMALY":274.0659,"EPHEMERIS_TYPE":0,"CLASSIFICATION_TYPE":"U","NORAD_CAT_ID":66034,"ELEMENT_SET_NO":999,"REV_AT_EPOCH":1928,"BSTAR":-1.0165523e-5,"MEAN_MOTION_DOT":5.0e-8,"MEAN_MOTION_DDOT":0},{"OBJECT_NAME":"QIANFAN-93","OBJECT_ID":"2025-233C","EPOCH":"2026-03-06T06:38:05.712000","MEAN_MOTION":13.51004936,"ECCENTRICITY":0.00019301,"INCLINATION":88.9942,"RA_OF_ASC_NODE":53.6068,"ARG_OF_PERICENTER":90.7314,"MEAN_ANOMALY":269.4058,"EPHEMERIS_TYPE":0,"CLASSIFICATION_TYPE":"U","NORAD_CAT_ID":66035,"ELEMENT_SET_NO":999,"REV_AT_EPOCH":1928,"BSTAR":3.2627868e-5,"MEAN_MOTION_DOT":3.3e-7,"MEAN_MOTION_DDOT":0},{"OBJECT_NAME":"QIANFAN-94","OBJECT_ID":"2025-233D","EPOCH":"2026-03-06T06:20:06.048096","MEAN_MOTION":13.50991882,"ECCENTRICITY":0.00020561,"INCLINATION":88.9939,"RA_OF_ASC_NODE":53.5148,"ARG_OF_PERICENTER":87.753,"MEAN_ANOMALY":272.3857,"EPHEMERIS_TYPE":0,"CLASSIFICATION_TYPE":"U","NORAD_CAT_ID":66036,"ELEMENT_SET_NO":999,"REV_AT_EPOCH":1933,"BSTAR":5.841286e-6,"MEAN_MOTION_DOT":1.6e-7,"MEAN_MOTION_DDOT":0},{"OBJECT_NAME":"QIANFAN-95","OBJECT_ID":"2025-233E","EPOCH":"2026-03-06T06:31:58.326240","MEAN_MOTION":13.51015251,"ECCENTRICITY":0.00020716,"INCLINATION":88.9936,"RA_OF_ASC_NODE":53.0602,"ARG_OF_PERICENTER":93.3814,"MEAN_ANOMALY":266.7574,"EPHEMERIS_TYPE":0,"CLASSIFICATION_TYPE":"U","NORAD_CAT_ID":66037,"ELEMENT_SET_NO":999,"REV_AT_EPOCH":1958,"BSTAR":7.76957e-6,"MEAN_MOTION_DOT":1.7e-7,"MEAN_MOTION_DDOT":0},{"OBJECT_NAME":"QIANFAN-96","OBJECT_ID":"2025-233F","EPOCH":"2026-03-06T05:21:08.095104","MEAN_MOTION":13.51004711,"ECCENTRICITY":0.00019566,"INCLINATION":88.9934,"RA_OF_ASC_NODE":53.6112,"ARG_OF_PERICENTER":94.3787,"MEAN_ANOMALY":265.7588,"EPHEMERIS_TYPE":0,"CLASSIFICATION_TYPE":"U","NORAD_CAT_ID":66038,"ELEMENT_SET_NO":999,"REV_AT_EPOCH":1927,"BSTAR":3.2911096e-5,"MEAN_MOTION_DOT":3.3e-7,"MEAN_MOTION_DDOT":0},{"OBJECT_NAME":"QIANFAN-97","OBJECT_ID":"2025-233G","EPOCH":"2026-03-06T04:57:24.901344","MEAN_MOTION":13.51004109,"ECCENTRICITY":0.00019474,"INCLINATION":88.9937,"RA_OF_ASC_NODE":53.5935,"ARG_OF_PERICENTER":92.206,"MEAN_ANOMALY":267.9315,"EPHEMERIS_TYPE":0,"CLASSIFICATION_TYPE":"U","NORAD_CAT_ID":66039,"ELEMENT_SET_NO":999,"REV_AT_EPOCH":1928,"BSTAR":2.8018691e-5,"MEAN_MOTION_DOT":3.0e-7,"MEAN_MOTION_DDOT":0},{"OBJECT_NAME":"QIANFAN-98","OBJECT_ID":"2025-233H","EPOCH":"2026-03-06T06:55:50.402784","MEAN_MOTION":13.51004608,"ECCENTRICITY":0.00024501,"INCLINATION":88.9926,"RA_OF_ASC_NODE":53.3272,"ARG_OF_PERICENTER":84.8685,"MEAN_ANOMALY":275.2746,"EPHEMERIS_TYPE":0,"CLASSIFICATION_TYPE":"U","NORAD_CAT_ID":66040,"ELEMENT_SET_NO":999,"REV_AT_EPOCH":1943,"BSTAR":5.0724343e-5,"MEAN_MOTION_DOT":4.5e-7,"MEAN_MOTION_DDOT":0},{"OBJECT_NAME":"QIANFAN-99","OBJECT_ID":"2025-233J","EPOCH":"2026-03-06T05:15:10.938240","MEAN_MOTION":13.51004896,"ECCENTRICITY":0.00023453,"INCLINATION":88.9937,"RA_OF_ASC_NODE":53.5956,"ARG_OF_PERICENTER":88.6176,"MEAN_ANOMALY":271.5243,"EPHEMERIS_TYPE":0,"CLASSIFICATION_TYPE":"U","NORAD_CAT_ID":66041,"ELEMENT_SET_NO":999,"REV_AT_EPOCH":1928,"BSTAR":5.2279728e-5,"MEAN_MOTION_DOT":4.6e-7,"MEAN_MOTION_DDOT":0},{"OBJECT_NAME":"QIANFAN-100","OBJECT_ID":"2025-233K","EPOCH":"2026-03-06T06:49:56.493696","MEAN_MOTION":13.51005684,"ECCENTRICITY":0.0001928,"INCLINATION":88.9949,"RA_OF_ASC_NODE":53.5044,"ARG_OF_PERICENTER":91.3944,"MEAN_ANOMALY":268.7428,"EPHEMERIS_TYPE":0,"CLASSIFICATION_TYPE":"U","NORAD_CAT_ID":66042,"ELEMENT_SET_NO":999,"REV_AT_EPOCH":1934,"BSTAR":4.6713094e-5,"MEAN_MOTION_DOT":4.2e-7,"MEAN_MOTION_DDOT":0},{"OBJECT_NAME":"QIANFAN-101","OBJECT_ID":"2025-233L","EPOCH":"2026-03-06T06:27:26.604288","MEAN_MOTION":14.26735331,"ECCENTRICITY":0.00169364,"INCLINATION":88.9938,"RA_OF_ASC_NODE":52.3789,"ARG_OF_PERICENTER":117.0663,"MEAN_ANOMALY":243.2262,"EPHEMERIS_TYPE":0,"CLASSIFICATION_TYPE":"U","NORAD_CAT_ID":66043,"ELEMENT_SET_NO":999,"REV_AT_EPOCH":1995,"BSTAR":0.00029481895,"MEAN_MOTION_DOT":7.29e-6,"MEAN_MOTION_DDOT":0},{"OBJECT_NAME":"QIANFAN-102","OBJECT_ID":"2025-233M","EPOCH":"2026-03-06T07:19:23.325312","MEAN_MOTION":13.509925,"ECCENTRICITY":0.0002097,"INCLINATION":88.9936,"RA_OF_ASC_NODE":53.4989,"ARG_OF_PERICENTER":88.3828,"MEAN_ANOMALY":271.7563,"EPHEMERIS_TYPE":0,"CLASSIFICATION_TYPE":"U","NORAD_CAT_ID":66044,"ELEMENT_SET_NO":999,"REV_AT_EPOCH":1934,"BSTAR":3.3748408e-5,"MEAN_MOTION_DOT":3.4e-7,"MEAN_MOTION_DDOT":0}]
