QIANFAN-86              
1 63172U 25046P   26065.24795403  .00000192  00000+0  27912-3 0  9994
2 63172  88.9761 311.1606 0009273 250.0219 109.9934 13.51001758 58827
QIANFAN-87              
1 63173U 25046Q   26065.21922935  .00000198  00000+0  28850-3 0  9992
2 63173  88.9757 311.2718 0009972 244.4032 115.6089 13.51010076 58754
QIANFAN-88              
1 63174U 25046R   26065.23555796  .00000190  00000+0  27519-3 0  9995
2 63174  88.9759 311.2269 0010335 254.1070 105.8942 13.50998444 58788
QIANFAN-89              
1 63175U 25046S   26065.27274251  .00000181  00000+0  26194-3 0  9992
2 63175  88.9760 311.4121 0014847 243.2421 116.7211 13.51008981 58689
QIANFAN-90              
1 63176U 25046T   26065.22751507  .00000211  00000+0  30796-3 0  9999
2 63176  88.9760 311.3893 0011808 241.2869 118.7096 13.51008878 58692
QIANFAN-91              
1 66033U 25233A   26065.26005555  .00000029  00000+0  26453-4 0  9994
2 66033  88.9931  53.5958 0001951  92.2960 267.8415 13.51004533 19285
QIANFAN-92              
1 66034U 25233B   26065.26822150  .00000005  00000+0 -10166-4 0  9992
2 66034  88.9915  53.5836 0001951  86.0715 274.0659 13.51005872 19289
QIANFAN-93              
1 66035U 25233C   26065.27645500  .00000033  00000+0  32628-4 0  9993
2 66035  88.9942  53.6068 0001930  90.7314 269.4058 13.51004936 19283
QIANFAN-94              
1 66036U 25233D   26065.26395889  .00000016  00000+0  58413-5 0  9997
2 66036  88.9939  53.5148 0002056  87.7530 272.3857 13.50991882 19334
QIANFAN-95              
1 66037U 25233E   26065.27220285  .00000017  00000+0  77696-5 0  9991
2 66037  88.9936  53.0602 0002071  93.3814 266.7574 13.51015251 19585
QIANFAN-96              
1 66038U 25233F   26065.22301036  .00000033  00000+0  32911-4 0  9999
2 66038  88.9934  53.6112 0001956  94.3787 265.7588 13.51004711 19276
QIANFAN-97              
1 66039U 25233G   26065.20653821  .00000030  00000+0  28019-4 0  9991
2 66039  88.9937  53.5935 0001947  92.2060 267.9315 13.51004109 19287
QIANFAN-98              
1 66040U 25233H   26065.28877781  .00000045  00000+0  50724-4 0  9998
2 66040  88.9926  53.3272 0002450  84.8685 275.2746 13.51004608 19430
QIANFAN-99              
1 66041U 25233J   26065.21887660  .00000046  00000+0  52280-4 0  9999
2 66041  88.9937  53.5956 0002345  88.6176 271.5243 13.51004896 19287
QIANFAN-100             
1 66042U 25233K   26065.28468164  .00000042  00000+0  46713-4 0  9991
2 66042  88.9949  53.5044 0001928  91.3944 268.7428 13.51005684 19345
QIANFAN-101             
1 66043U 25233L   26065.26905792  .00000729  00000+0  29482-3 0  9998
2 66043  88.9938  52.3789 0016936 117.0663 243.2262 14.26735331 19959
QIANFAN-102             
1 66044U 25233M   26065.30513108  .00000034  00000+0  33748-4 0  9990
2 66044  88.9936  53.4989 0002097  88.3828 271.7563 13.50992500 19340
